{"type": "FeatureCollection", "features": [ {"type": "Feature", "properties": {"norad_id": 34375, "name": "IRIDIUM 33 DEB", "group": "iridium-33-debris", "lat": -75.40941197360408, "lon": 13.044475109415206, "alt_km": 907.9422773727374, "timestamp": "2025-12-21T11:31:43.243891+00:00", "meta": {"OBJECT_NAME": "IRIDIUM 33 DEB", "OBJECT_ID": "1997-051FT", "EPOCH": "2025-12-21T00:46:06.767328", "MEAN_MOTION": 14.18006296, "ECCENTRICITY": 0.0103701, "INCLINATION": 86.4323, "RA_OF_ASC_NODE": 179.3579, "ARG_OF_PERICENTER": 100.8025, "MEAN_ANOMALY": 27.2657, "EPHEMERIS_TYPE": 0, "CLASSIFICATION_TYPE": "U", "NORAD_CAT_ID": 34375, "ELEMENT_SET_NO": 999, "REV_AT_EPOCH": 86829, "BSTAR": 0.00030848, "MEAN_MOTION_DOT": 6.86e-06, "MEAN_MOTION_DDOT": 0}, "tle": {"line1": "1 34375U 97051FT  25355.03202277  .00000686  00000+0  30848-3 0  9992", "line2": "2 34375  86.4323 179.3579 0103701 100.8025  27.2657 14.18006296868298"}}, "geometry": {"type": "Point", "coordinates": [13.044475109415206, -75.40941197360408]}}, {"type": "Feature", "properties": {"norad_id": 34376, "name": "IRIDIUM 33 DEB", "group": "iridium-33-debris", "lat": -50.166669630648805, "lon": -172.93803498391904, "alt_km": 692.3431191397458, "timestamp": "2025-12-21T11:31:43.243901+00:00", "meta": {"OBJECT_NAME": "IRIDIUM 33 DEB", "OBJECT_ID": "1997-051FU", "EPOCH": "2025-12-21T00:37:48.894240", "MEAN_MOTION": 14.62669201, "ECCENTRICITY": 0.0028109, "INCLINATION": 86.2976, "RA_OF_ASC_NODE": 2.814, "ARG_OF_PERICENTER": 139.3438, "MEAN_ANOMALY": 220.9879, "EPHEMERIS_TYPE": 0, "CLASSIFICATION_TYPE": "U", "NORAD_CAT_ID": 34376, "ELEMENT_SET_NO": 999, "REV_AT_EPOCH": 88128, "BSTAR": 0.000896, "MEAN_MOTION_DOT": 4.606e-05, "MEAN_MOTION_DDOT": 0}, "tle": {"line1": "1 34376U 97051FU  25355.02626035  .00004606  00000+0  89600-3 0  9990", "line2": "2 34376  86.2976   2.8140 0028109 139.3438 220.9879 14.62669201881280"}}, "geometry": {"type": "Point", "coordinates": [-172.93803498391904, -50.166669630648805]}}, {"type": "Feature", "properties": {"norad_id": 34486, "name": "IRIDIUM 33 DEB", "group": "iridium-33-debris", "lat": 54.48862313183318, "lon": 13.06116903737067, "alt_km": 565.5873182372452, "timestamp": "2025-12-21T11:31:43.243912+00:00", "meta": {"OBJECT_NAME": "IRIDIUM 33 DEB", "OBJECT_ID": "1997-051GB", "EPOCH": "2025-12-21T01:57:25.087104", "MEAN_MOTION": 14.96136248, "ECCENTRICITY": 0.001392, "INCLINATION": 86.3926, "RA_OF_ASC_NODE": 8.1733, "ARG_OF_PERICENTER": 88.5923, "MEAN_ANOMALY": 339.5471, "EPHEMERIS_TYPE": 0, "CLASSIFICATION_TYPE": "U", "NORAD_CAT_ID": 34486, "ELEMENT_SET_NO": 999, "REV_AT_EPOCH": 89111, "BSTAR": 0.0013205, "MEAN_MOTION_DOT": 0.00014928, "MEAN_MOTION_DDOT": 0}, "tle": {"line1": "1 34486U 97051GB  25355.08154036  .00014928  00000+0  13205-2 0  9990", "line2": "2 34486  86.3926   8.1733 0013920  88.5923 339.5471 14.96136248891119"}}, "geometry": {"type": "Point", "coordinates": [13.06116903737067, 54.48862313183318]}}, {"type": "Feature", "properties": {"norad_id": 34487, "name": "IRIDIUM 33 DEB", "group": "iridium-33-debris", "lat": -32.50213758390825, "lon": -169.05075787995915, "alt_km": 762.6111052634342, "timestamp": "2025-12-21T11:31:43.243922+00:00", "meta": {"OBJECT_NAME": "IRIDIUM 33 DEB", "OBJECT_ID": "1997-051GC", "EPOCH": "2025-12-21T00:51:13.870080", "MEAN_MOTION": 14.43225793, "ECCENTRICITY": 0.0033211, "INCLINATION": 86.343, "RA_OF_ASC_NODE": 8.8054, "ARG_OF_PERICENTER": 102.5675, "MEAN_ANOMALY": 320.0917, "EPHEMERIS_TYPE": 0, "CLASSIFICATION_TYPE": "U", "NORAD_CAT_ID": 34487, "ELEMENT_SET_NO": 999, "REV_AT_EPOCH": 88368, "BSTAR": 0.00013015, "MEAN_MOTION_DOT": 4.61e-06, "MEAN_MOTION_DDOT": 0}, "tle": {"line1": "1 34487U 97051GC  25355.03557720  .00000461  00000+0  13015-3 0  9990", "line2": "2 34487  86.3430   8.8054 0033211 102.5675 320.0917 14.43225793883688"}}, "geometry": {"type": "Point", "coordinates": [-169.05075787995915, -32.50213758390825]}}, {"type": "Feature", "properties": {"norad_id": 34488, "name": "IRIDIUM 33 DEB", "group": "iridium-33-debris", "lat": 41.80532993369963, "lon": -55.22857891716634, "alt_km": 460.9129257886034, "timestamp": "2025-12-21T11:31:43.243933+00:00", "meta": {"OBJECT_NAME": "IRIDIUM 33 DEB", "OBJECT_ID": "1997-051GD", "EPOCH": "2025-12-20T21:13:54.490080", "MEAN_MOTION": 15.31302202, "ECCENTRICITY": 0.0010948, "INCLINATION": 86.3254, "RA_OF_ASC_NODE": 301.7725, "ARG_OF_PERICENTER": 38.0894, "MEAN_ANOMALY": 322.1127, "EPHEMERIS_TYPE": 0, "CLASSIFICATION_TYPE": "U", "NORAD_CAT_ID": 34488, "ELEMENT_SET_NO": 999, "REV_AT_EPOCH": 89364, "BSTAR": 0.0030791, "MEAN_MOTION_DOT": 0.00094223, "MEAN_MOTION_DDOT": 0}, "tle": {"line1": "1 34488U 97051GD  25354.88465845  .00094223  00000+0  30791-2 0  9997", "line2": "2 34488  86.3254 301.7725 0010948  38.0894 322.1127 15.31302202893643"}}, "geometry": {"type": "Point", "coordinates": [-55.22857891716634, 41.80532993369963]}}, {"type": "Feature", "properties": {"norad_id": 34492, "name": "IRIDIUM 33 DEB", "group": "iridium-33-debris", "lat": 67.02993851358745, "lon": 142.7228363144129, "alt_km": 813.4985513222555, "timestamp": "2025-12-21T11:31:43.243943+00:00", "meta": {"OBJECT_NAME": "IRIDIUM 33 DEB", "OBJECT_ID": "1997-051GH", "EPOCH": "2025-12-19T10:45:18.347328", "MEAN_MOTION": 14.25846982, "ECCENTRICITY": 0.0188646, "INCLINATION": 86.4707, "RA_OF_ASC_NODE": 331.9164, "ARG_OF_PERICENTER": 216.3823, "MEAN_ANOMALY": 273.3437, "EPHEMERIS_TYPE": 0, "CLASSIFICATION_TYPE": "U", "NORAD_CAT_ID": 34492, "ELEMENT_SET_NO": 999, "REV_AT_EPOCH": 85154, "BSTAR": 0.0022012, "MEAN_MOTION_DOT": 6.332e-05, "MEAN_MOTION_DDOT": 0}, "tle": {"line1": "1 34492U 97051GH  25353.44812902  .00006332  00000+0  22012-2 0  9994", "line2": "2 34492  86.4707 331.9164 0188646 216.3823 273.3437 14.25846982851542"}}, "geometry": {"type": "Point", "coordinates": [142.7228363144129, 67.02993851358745]}}, {"type": "Feature", "properties": {"norad_id": 34497, "name": "IRIDIUM 33 DEB", "group": "iridium-33-debris", "lat": 45.91692548229714, "lon": 52.522394618211344, "alt_km": 800.8466413428841, "timestamp": "2025-12-21T11:31:43.243954+00:00", "meta": {"OBJECT_NAME": "IRIDIUM 33 DEB", "OBJECT_ID": "1997-051GN", "EPOCH": "2025-12-21T03:02:18.964896", "MEAN_MOTION": 14.27475874, "ECCENTRICITY": 0.0078047, "INCLINATION": 86.2771, "RA_OF_ASC_NODE": 48.8187, "ARG_OF_PERICENTER": 312.1215, "MEAN_ANOMALY": 76.3389, "EPHEMERIS_TYPE": 0, "CLASSIFICATION_TYPE": "U", "NORAD_CAT_ID": 34497, "ELEMENT_SET_NO": 999, "REV_AT_EPOCH": 87003, "BSTAR": 0.00042942, "MEAN_MOTION_DOT": 1.107e-05, "MEAN_MOTION_DDOT": 0}, "tle": {"line1": "1 34497U 97051GN  25355.12660839  .00001107  00000+0  42942-3 0  9996", "line2": "2 34497  86.2771  48.8187 0078047 312.1215  76.3389 14.27475874870030"}}, "geometry": {"type": "Point", "coordinates": [52.522394618211344, 45.91692548229714]}}, {"type": "Feature", "properties": {"norad_id": 34508, "name": "IRIDIUM 33 DEB", "group": "iridium-33-debris", "lat": -9.329790685966344, "lon": -80.4645318045359, "alt_km": 733.5243575354589, "timestamp": "2025-12-21T11:31:43.243964+00:00", "meta": {"OBJECT_NAME": "IRIDIUM 33 DEB", "OBJECT_ID": "1997-051GZ", "EPOCH": "2025-12-21T00:38:21.314976", "MEAN_MOTION": 14.38484044, "ECCENTRICITY": 0.006661, "INCLINATION": 86.371, "RA_OF_ASC_NODE": 99.1304, "ARG_OF_PERICENTER": 146.3518, "MEAN_ANOMALY": 214.1938, "EPHEMERIS_TYPE": 0, "CLASSIFICATION_TYPE": "U", "NORAD_CAT_ID": 34508, "ELEMENT_SET_NO": 999, "REV_AT_EPOCH": 87428, "BSTAR": 0.00080829, "MEAN_MOTION_DOT": 2.552e-05, "MEAN_MOTION_DDOT": 0}, "tle": {"line1": "1 34508U 97051GZ  25355.02663559  .00002552  00000+0  80829-3 0  9991", "line2": "2 34508  86.3710  99.1304 0066610 146.3518 214.1938 14.38484044874287"}}, "geometry": {"type": "Point", "coordinates": [-80.4645318045359, -9.329790685966344]}}, {"type": "Feature", "properties": {"norad_id": 34521, "name": "IRIDIUM 33 DEB", "group": "iridium-33-debris", "lat": 69.75230422512641, "lon": 36.58547712276167, "alt_km": 675.994603009729, "timestamp": "2025-12-21T11:31:43.243975+00:00", "meta": {"OBJECT_NAME": "IRIDIUM 33 DEB", "OBJECT_ID": "1997-051HN", "EPOCH": "2025-12-20T20:26:24.360576", "MEAN_MOTION": 14.63427269, "ECCENTRICITY": 0.0002559, "INCLINATION": 86.3787, "RA_OF_ASC_NODE": 26.9765, "ARG_OF_PERICENTER": 179.8016, "MEAN_ANOMALY": 180.3197, "EPHEMERIS_TYPE": 0, "CLASSIFICATION_TYPE": "U", "NORAD_CAT_ID": 34521, "ELEMENT_SET_NO": 999, "REV_AT_EPOCH": 88591, "BSTAR": 0.00054052, "MEAN_MOTION_DOT": 2.817e-05, "MEAN_MOTION_DDOT": 0}, "tle": {"line1": "1 34521U 97051HN  25354.85167084  .00002817  00000+0  54052-3 0  9991", "line2": "2 34521  86.3787  26.9765 0002559 179.8016 180.3197 14.63427269885918"}}, "geometry": {"type": "Point", "coordinates": [36.58547712276167, 69.75230422512641]}}, {"type": "Feature", "properties": {"norad_id": 34525, "name": "IRIDIUM 33 DEB", "group": "iridium-33-debris", "lat": -34.62540083726598, "lon": 40.601851460206625, "alt_km": 756.7033839616342, "timestamp": "2025-12-21T11:31:43.243986+00:00", "meta": {"OBJECT_NAME": "IRIDIUM 33 DEB", "OBJECT_ID": "1997-051HS", "EPOCH": "2025-12-21T03:29:36.485088", "MEAN_MOTION": 14.42923507, "ECCENTRICITY": 0.0006444, "INCLINATION": 86.372, "RA_OF_ASC_NODE": 43.2557, "ARG_OF_PERICENTER": 76.0018, "MEAN_ANOMALY": 311.4456, "EPHEMERIS_TYPE": 0, "CLASSIFICATION_TYPE": "U", "NORAD_CAT_ID": 34525, "ELEMENT_SET_NO": 999, "REV_AT_EPOCH": 88209, "BSTAR": 0.00023925, "MEAN_MOTION_DOT": 8.19e-06, "MEAN_MOTION_DDOT": 0}, "tle": {"line1": "1 34525U 97051HS  25355.14556117  .00000819  00000+0  23925-3 0  9992", "line2": "2 34525  86.3720  43.2557 0006444  76.0018 311.4456 14.42923507882091"}}, "geometry": {"type": "Point", "coordinates": [40.601851460206625, -34.62540083726598]}}]}